LEMUR-2-ROUNDTRIPPER    
1 62711U 25009DG  26196.16948394  .00004615  00000+0  33632-3 0  9996
2 62711  97.7253 278.8143 0004458  63.8753 296.2931 15.04231838 81835
LEMUR-2-MYNAMEISJEFF    
1 62712U 25009DH  26196.16797074  .00004562  00000+0  33262-3 0  9994
2 62712  97.7303 279.2107 0004066  97.4624 262.7064 15.04222993 81839
LEMUR-2-LEIA-PHILIP     
1 63246U 25052AN  26195.93616703  .00000193  00000+0  21592-4 0  9998
2 63246  97.6806  87.4167 0005096 119.8953 240.2776 14.97391318 72821
LEMUR-2-LIA-MARTIN      
1 63248U 25052AQ  26196.13122025  .00002106  00000+0  18314-3 0  9995
2 63248  97.6870  88.1270 0005305  90.0857 270.0973 14.98029975 72865
LEMUR-2-DELOITTE-1      
1 63259U 25052BB  26196.17847150  .00002285  00000+0  19960-3 0  9990
2 63259  97.6882  88.5037 0002560  64.7937 295.3551 14.97781793 72888
LEMUR-2-EMERSONROSE     
1 63261U 25052BD  26196.12592995  .00002686  00000+0  22486-3 0  9994
2 63261  97.6885  89.0649 0002726  60.8639 299.2857 14.99290579 72925
LEMUR-2-MARACHE-FRAN    
1 63262U 25052BE  26196.14868613  .00001680  00000+0  13870-3 0  9990
2 63262  97.6837  89.4551 0005171 252.5472 107.5186 15.00315109 72950
LEMUR-2-THEFALCONER     
1 63264U 25052BG  26196.14210683  .00000938  00000+0  85317-4 0  9991
2 63264  97.6831  88.0589 0000289 292.8068  67.3123 14.97563210 72873
LEMUR-2-UNTITLED-SC     
1 63351U 25061A   26195.92149000  .00001611  00000+0  92972-4 0  9991
2 63351  97.5652 171.0866 0019212 163.9754 196.2089 15.13645430 71783
LEMUR-2-ESPERANZA       
1 63352U 25061B   26195.89684498  .00001799  00000+0  10314-3 0  9999
2 63352  97.5659 171.1621 0018824 163.2431 196.9426 15.13751282 71789
LEMUR-2-KREMPEL-BRO2    
1 63353U 25061C   26195.98198419  .00001608  00000+0  91459-4 0  9992
2 63353  97.5705 171.8154 0019953 155.9783 204.2383 15.14178000 71813
LEMUR-2-THERMORAPTOR    
1 63354U 25061D   26196.16079721  .00001941  00000+0  10936-3 0  9998
2 63354  97.5711 172.0744 0019723 154.1868 206.0352 15.14261275 71845
LEMUR-2-NEUROSPICY      
1 63355U 25061E   26195.86601067  .00002019  00000+0  11332-3 0  9997
2 63355  97.5638 171.3860 0017457 158.0548 202.1435 15.14379540 71805
LEMUR-2-TILLINFINITY    
1 63356U 25061F   26195.89060975  .00002120  00000+0  11684-3 0  9991
2 63356  97.5623 171.7204 0019037 146.8297 213.4133 15.14963133 71838
LEMUR-2-KREMPEL-BRO1    
1 63357U 25061G   26195.86762064  .00002037  00000+0  11295-3 0  9992
2 63357  97.5623 171.6057 0019664 148.3273 211.9146 15.14770587 71826
LEMUR-2-LANGER2SPACE    
1 63358U 25061H   26195.89968102  .00001870  00000+0  10500-3 0  9999
2 63358  97.5630 171.4405 0017397 156.1893 204.0148 15.14463886 71811
LEMUR-2-BALTO           
1 63395U 25052BH  26196.13305052  .00002538  00000+0  20692-3 0  9992
2 63395  97.6929  89.4276 0005121 327.8612  32.2299 15.00363697 72954
LEMUR-2-KRISH           
1 64561U 25135AK  26195.29112395  .00001935  00000+0  17576-3 0  9999
2 64561  97.7772 309.9867 0001390  95.6584 264.4796 14.96445154 57974
LEMUR-2-HUBBLE-4        
1 64565U 25135AP  26195.94021597  .00000933  00000+0  93600-4 0  9998
2 64565  97.7719 309.5247 0002651 162.7067 197.4243 14.93685564 58016
LEMUR-2-SEJONG-2        
1 64586U 25135BL  26196.24827894  .00002161  00000+0  19331-3 0  9992
2 64586  97.7708 311.0834 0003971 218.5313 141.5625 14.96911900 58144
LEMUR-2-HUBBLE-5        
1 64840U 25135BT  26196.15003953  .00000695  00000+0  70218-4 0  9999
2 64840  97.7741 310.4010 0004314 235.4221 124.6592 14.94213621 58082
LEMUR-2-KARENDARRELL    
1 64841U 25135BU  26195.86302757  .00004225  00000+0  33968-3 0  9994
2 64841  97.7716 312.0347 0012409 105.8170 254.4422 15.00496961 58164
LEMUR-2-LUCILLE-ROSE    
1 65403U 25135BV  26195.83647656  .00003451  00000+0  27830-3 0  9997
2 65403  97.7711 312.0433 0014882 190.0513 170.0415 15.00486338 52788
LEMUR-2-AFFIE-WAUWIE    
1 66295U 25248C   26195.38884985  .00012991  00000+0  47322-3 0  9997
2 66295  45.3893 327.4899 0008759 246.6108 113.3860 15.28229453 38756
OTTER SDM               
1 66678U 25276N   26196.16317338  .00003557  00000+0  16803-3 0  9991
2 66678  97.4206 269.1787 0004296 254.0411 106.0351 15.20056680 34669
LEMUR-2-STAS-GORBUK     
1 66686U 25276W   26196.18459675  .00002841  00000+0  13639-3 0  9992
2 66686  97.4240 269.2517 0003614 248.2139 111.8711 15.19658337 34662
LEMUR-2-TEODOR          
1 66768U 25276DG  26196.13761225  .00003242  00000+0  14786-3 0  9995
2 66768  97.4145 269.4772 0002214  86.8721 273.2768 15.21337141 34698
LEMUR-2-LAILA           
1 66776U 25276DQ  26196.17318584  .00003014  00000+0  13678-3 0  9990
2 66776  97.4169 269.6508 0002925  94.5398 265.6172 15.21563113 34703
LEMUR-2-CELIJO-SB-PK    
1 66781U 25276DW  26196.18488120  .00002627  00000+0  21423-3 0  9997
2 66781  97.5197 266.0383 0007031  64.1114 296.0834 15.00282855 26820
LEMUR-2-FINNIAN         
1 66782U 25276DX  26195.42167484  .00001590  00000+0  13038-3 0  9992
2 66782  97.5382 265.5655 0008441 359.1143   1.0065 15.00610397 24080
